METEOR-M2-4
1 59051U 24039A   26149.61312229  .00000015  00000+0  26533-4 0  9994
2 59051  98.7001 109.1458 0006252 216.7159 143.3591 14.22427410116620
SONATE-2
1 59112U 24043Q   26149.38395000  .00045786  00000+0  62823-3 0  9994
2 59112  97.5509 298.6503 0006031 263.0916  96.9652 15.57197917124966
GRBBeta
1 60237U 24128C   26149.50333245  .00006052  00000+0  41364-3 0  9995
2 60237  61.9907 281.8111 0043162 130.8355 229.6493 15.06473752103453
Curium One
1 60242U 24128H   26149.52529103  .00011234  00000+0  64529-3 0  9999
2 60242  61.9792 271.8574 0042409 127.1171 233.3812 15.12194014103636
ROBUSTA-3A
1 60243U 24128J   26149.54596019  .00011747  00000+0  68885-3 0  9990
2 60243  61.9870 274.1525 0043816 124.6284 235.8955 15.11365821103603
CatSat
1 60246U 24125J   26149.50823600  .00062474  00000+0  87370-3 0  9998
2 60246  97.2104   1.7960 0021385 247.5402 112.3588 15.56358119104488
ARTIC WX
1 60543U 24149CD  26149.14612106  .00000969  00000+0  10661-3 0  9991
2 60543  97.6804 220.1552 0002883 141.9882 218.1540 14.89794141 96469
ARCTICSAT 1
1 61762U 24199AD  26149.15420719  .00505420  10409-3  13952-2 0  9993
2 61762  97.2867  31.8179 0003228 177.4987 182.6305 15.93881571135079
HYPERVIEW-1G (RS66S)
1 61772U 24199AP  26149.61924051  .00120341  00000+0  95139-3 0  9998
2 61772  97.2915  28.4649 0003409   6.8520 353.2789 15.70989368131758
AO-123
1 61781U 24199AY  26149.59267180  .00010044  00000+0  29364-3 0  9993
2 61781  97.3028  18.4333 0014450  23.0103 337.1785 15.35371356131074
SAMSAT-IONOSPHERE
1 61784U 24199BB  26149.61181110  .00050852  00000+0  73213-3 0  9990
2 61784  97.2979  25.0834 0007819   5.9162 354.2183 15.55856643134676
LASARsat
1 62391U 24247Q   26148.97649775  .00039691  00000+0  82529-3 0  9991
2 62391  44.9760  10.0638 0007222 225.0281 135.0023 15.45018896 80340
CROCUBE
1 62394U 24247T   26148.99674432  .00047491  00000+0  92895-3 0  9998
2 62394  44.9738   7.5824 0007075 228.8156 131.2124 15.46727385 80378
JINJUSat 1B
1 63210U 25052A   26148.69668488  .00020242  00000+0  64015-3 0  9990
2 63210  97.4034  45.4333 0004665 131.9188 228.2452 15.32808610 67119
NUSHSAT 1
1 63211U 25052B   26149.22697826  .00025575  00000+0  75055-3 0  9999
2 63211  97.4012  46.4667 0004561 130.4748 229.6893 15.35134307 67233
TEVEL2-4
1 63213U 25052D   26149.26838978  .00024143  00000+0  73796-3 0  9990
2 63213  97.3938  45.6367 0003658 139.3670 220.7846 15.33861049 67213
TEVEL2-5
1 63214U 25052E   26149.15633884  .00022741  00000+0  69908-3 0  9990
2 63214  97.3928  45.4775 0003537 140.4500 219.7002 15.33693415 67194
TEVEL2-6
1 63215U 25052F   26149.23345762  .00023498  00000+0  72294-3 0  9997
2 63215  97.3933  45.5393 0003685 139.5375 220.6143 15.33659776 67202
TEVEL2-1
1 63217U 25052H   26149.25606875  .00022821  00000+0  71351-3 0  9998
2 63217  97.3907  45.2087 0003265 148.8411 211.3025 15.33154308 67195
TEVEL2-3
1 63218U 25052J   26149.25136705  .00023170  00000+0  72320-3 0  9994
2 63218  97.3913  45.2234 0003323 150.5899 209.5531 15.33205083 67190
TEVEL2-2
1 63219U 25052K   26149.25648118  .00023007  00000+0  71912-3 0  9996
2 63219  97.3907  45.2110 0003244 150.6875 209.4549 15.33161045 67191
TEVEL2-9
1 63237U 25052AD  26149.27513319  .00021454  00000+0  71197-3 0  9991
2 63237  97.3970  44.6452 0005521 189.1188 170.9954 15.31243291 67135
TEVEL2-7
1 63238U 25052AE  26149.24715104  .00021120  00000+0  70704-3 0  9998
2 63238  97.3974  44.5409 0005644 189.9993 170.1136 15.30963779 67121
TEVEL2-8
1 63239U 25052AF  26149.25519930  .00021251  00000+0  71175-3 0  9997
2 63239  97.3976  44.5273 0005571 191.1221 168.9898 15.30947181 67120
PARUS-T2
1 64560U 25135AJ  26149.27213178  .00006952  00000+0  63361-3 0  9993
2 64560  97.7720 264.1103 0001327  79.0555 281.0815 14.95440969 51086
Geoscan-1
1 64880U 25155E   26149.55124963  .00013282  00000+0  45502-3 0  9995
2 64880  97.4539 118.1699 0005863 233.1290 126.9413 15.30317538 77929
Geoscan-2
1 64890U 25155Q   26149.54824300  .00013448  00000+0  45682-3 0  9990
2 64890  97.4538 118.3120 0005597 215.0209 145.0664 15.30592294 77938
Geoscan-4
1 64892U 25155S   26149.59094471  .00018429  00000+0  58266-3 0  9991
2 64892  97.4536 118.8839 0004089 235.3572 124.7285 15.32840955 77972
Geoscan-3
1 64893U 25155T   26149.54978264  .00020842  00000+0  62117-3 0  9990
2 64893  97.4526 119.2203 0003895 232.2610 127.8280 15.34692822 77996
SPIRONE
1 66657U 25274H   26149.36153477  .00003112  00000+0  30079-3 0  9996
2 66657  97.7486  78.9231 0013897  78.5612 281.7168 14.93457886 27412
K-HERO
1 66660U 25274L   26148.76857759  .00002432  00000+0  23371-3 0  9998
2 66660  97.7491  78.4855 0015654  83.7336 276.5666 14.93875998 27337
SNUGLITE-III DURI
1 66661U 25274M   26149.35974398  .00002919  00000+0  27900-3 0  9996
2 66661  97.7492  79.0886 0016393  83.1900 277.1185 14.93929728 27426
GALAPAGOS
1 67279U 25313AH  26148.75535684  .00009913  00000+0  42884-3 0  9999
2 67279  97.3934 223.6748 0015582  75.2934 285.0029 15.22531486 22996
Lobachevsky
1 67282U 25313AL  26149.16157241  .00007359  00000+0  31696-3 0  9999
2 67282  97.3936 224.1878 0012083  70.7922 289.4621 15.22816878 23068
SAKHACUBE-CHOLBON
1 67290U 25313AU  26148.66858785  .00013001  00000+0  53080-3 0  9995
2 67290  97.3943 223.9521 0010528  70.6399 289.5976 15.24480882 23008
RS95S (QMR-KWT-2)
1 67291U 25313AV  26149.19843939  .00018873  00000+0  74066-3 0  9999
2 67291  97.3944 224.6131 0010112  68.4953 291.7362 15.25727657 23093
KNACKSAT-2
1 67683U 98067XZ  26148.92893911  .00055397  00000+0  72270-3 0  9992
2 67683  51.6306  31.2154 0011550 132.0548 228.1429 15.58069439 17279
Ten-Koh2
1 68261U 25241B   26148.93085191  .00008999  00000+0  38367-3 0  9998
2 68261  51.6642  51.2569 0006624  85.7333 274.4402 15.23636324 11970
JACK-002
1 68417U 26067B   26149.45635860  .00008287  00000+0  39764-3 0  9992
2 68417  97.4554 108.2832 0002421  38.0174 322.1231 15.19126181  9107
DISCO 2
1 68431U 26067R   26149.40735905  .00009987  00000+0  48361-3 0  9995
2 68431  97.4591 108.2249 0004206  75.8031 284.3670 15.18747823  9095
HADES-SA (SpinnyONE)
1 68446U 26067AG  26149.11463270  .00023678  00000+0  11531-2 0  9993
2 68446  97.4398 107.7083 0008866 129.7926 230.4090 15.18324433  9034
PARUS-6U1
1 68456U 26067AS  26149.46045988  .00006568  00000+0  33271-3 0  9999
2 68456  97.4541 108.1164 0007298 119.6932 240.5029 15.17291554  9099
SAL-E
1 68458U 26067AU  26149.39246355  .00009420  00000+0  47340-3 0  9996
2 68458  97.4468 107.9984 0007491 126.9634 233.2286 15.17451279  9086
FSI-SAT 2
1 68792U 26088A   26149.35898952  .00006432  00000+0  43649-3 0  9990
2 68792  97.5043 299.0959 0014918 167.0658 193.0955 15.06657378  5455
OrigamiSat 2
1 68795U 26088D   26149.39001932  .00004093  00000+0  26770-3 0  9998
2 68795  97.5041 299.2134 0017015 142.1772 218.0656 15.08214990  5463
ARICA 2
1 68796U 26088E   26149.38731570  .00005201  00000+0  33878-3 0  9995
2 68796  97.5030 299.2066 0016824 139.5861 220.6621 15.08244698  5461
WASEDA-SAT-ZERO-II
1 68797U 26088F   26149.38530211  .00007885  00000+0  50939-3 0  9992
2 68797  97.5026 299.2087 0016649 139.5665 220.6804 15.08386993  5465
MANGARO-II-Piscus
1 68798U 26088G   26149.37802586  .00005522  00000+0  35529-3 0  9993
2 68798  97.5036 299.2227 0020091 142.9542 217.3078 15.08618020  5466
Delfi-N3xt
1 39428U 13066N   26149.30307882  .00008002  00000-0  70166-3 0  9998
2 39428  97.8344  69.6345 0073164 269.7537  89.5299 14.94853641671805
IO-86
1 40931U          25360.30710720  .00000000  00000-0  12800-3 0    00
2 40931   6.0006 332.5373 0012733 338.8432   8.1437 14.79075515    01
LILIUM-4
1 71922C 26067AC  26089.50133053 -.00014632  00000 0 -74472-3 0    04
2 71922  97.4497  49.1617 0004341   5.9603 355.7042 15.16896692    16
TRANSIT 5B-5
1 00965U 64083D   26140.22132175  .00000058  00000-0  68520-4 0  9995
2 00965  90.0785 202.8139 0041495   2.6876  57.4259 13.57009955 39826
PARUS-T1
1 98707U 25009N   25063.20000000  .00000000  00000-0  00000-0 0    08
2 98707  97.4430 144.9801 0003811 149.1702 136.3402 15.16239457    06
T.MicroSat-1
1 98515U 25276Y   25347.12519372 +.00009703 +00000+0 +47621-3 0 00218
2 98515  97.4377  58.8963 0002080  99.7173 260.4296 15.18293117002180
ARICA-2
1 98329U 27001A   26113.71443610  .00000000  00000-0  29916-3 0    03
2 98329  97.5133 264.2063 0010953 206.3608 281.8662 15.08387874    01
CORIOLIS
1 27640U 03001A   26149.52391574  .00000127  00000+0  80360-4 0  9991
2 27640  98.7126 156.6937 0012796 266.5048  93.4665 14.19939275211576
